{
  "type": "FeatureCollection",
  "features": [
    {
      "type": "Feature",
      "properties": {
        "norad_id": 33791,
        "name": "COSMOS 2251 DEB",
        "group": "cosmos-2251-debris",
        "lat": 15.979621504495023,
        "lon": 48.754080347516854,
        "alt_km": 763.9573911603093,
        "timestamp": "2025-12-09T04:51:47.883956+00:00",
        "meta_object_name": "COSMOS 2251 DEB",
        "meta_object_id": "1993-036AG",
        "meta_epoch": "2025-12-08T14:19:00.610176",
        "meta_mean_motion": 14.43091638,
        "meta_eccentricity": 0.0030582,
        "meta_inclination": 74.1752,
        "meta_ra_of_asc_node": 45.211,
        "meta_arg_of_pericenter": 243.1756,
        "meta_mean_anomaly": 225.811,
        "meta_ephemeris_type": 0,
        "meta_classification_type": "U",
        "meta_norad_cat_id": 33791,
        "meta_element_set_no": 999,
        "meta_rev_at_epoch": 87992,
        "meta_bstar": 0.0012232,
        "meta_mean_motion_dot": 4.103e-05,
        "meta_mean_motion_ddot": 0,
        "tle_line1": "1 33791U 93036AG  25342.59653484  .00004103  00000+0  12232-2 0  9993",
        "tle_line2": "2 33791  74.1752  45.2110 0030582 243.1756 225.8110 14.43091638879923"
      },
      "geometry": {
        "type": "Point",
        "coordinates": [
          48.754080347516854,
          15.979621504495023
        ]
      }
    },
    {
      "type": "Feature",
      "properties": {
        "norad_id": 33792,
        "name": "COSMOS 2251 DEB",
        "group": "cosmos-2251-debris",
        "lat": -41.87544612705772,
        "lon": -174.00224855771552,
        "alt_km": 1404.5805109514922,
        "timestamp": "2025-12-09T04:51:47.883967+00:00",
        "meta_object_name": "COSMOS 2251 DEB",
        "meta_object_id": "1993-036AH",
        "meta_epoch": "2025-12-08T12:16:56.464896",
        "meta_mean_motion": 13.45813832,
        "meta_eccentricity": 0.04269038,
        "meta_inclination": 73.9008,
        "meta_ra_of_asc_node": 352.0961,
        "meta_arg_of_pericenter": 57.5358,
        "meta_mean_anomaly": 59.3024,
        "meta_ephemeris_type": 0,
        "meta_classification_type": "U",
        "meta_norad_cat_id": 33792,
        "meta_element_set_no": 999,
        "meta_rev_at_epoch": 82385,
        "meta_bstar": 0.001165583,
        "meta_mean_motion_dot": 1.187e-05,
        "meta_mean_motion_ddot": 0,
        "tle_line1": "1 33792U 93036AH  25342.51176464  .00001187  00000+0  11656-2 0  9992",
        "tle_line2": "2 33792  73.9008 352.0961 0426903  57.5358  59.3024 13.45813832823853"
      },
      "geometry": {
        "type": "Point",
        "coordinates": [
          -174.00224855771552,
          -41.87544612705772
        ]
      }
    },
    {
      "type": "Feature",
      "properties": {
        "norad_id": 33793,
        "name": "COSMOS 2251 DEB",
        "group": "cosmos-2251-debris",
        "lat": 72.6838614326217,
        "lon": -90.79990591444559,
        "alt_km": 840.4197691409663,
        "timestamp": "2025-12-09T04:51:47.883976+00:00",
        "meta_object_name": "COSMOS 2251 DEB",
        "meta_object_id": "1993-036AJ",
        "meta_epoch": "2025-12-08T13:32:25.769760",
        "meta_mean_motion": 14.27701967,
        "meta_eccentricity": 0.0078353,
        "meta_inclination": 73.9804,
        "meta_ra_of_asc_node": 157.5063,
        "meta_arg_of_pericenter": 308.4364,
        "meta_mean_anomaly": 107.571,
        "meta_ephemeris_type": 0,
        "meta_classification_type": "U",
        "meta_norad_cat_id": 33793,
        "meta_element_set_no": 999,
        "meta_rev_at_epoch": 87147,
        "meta_bstar": 0.0011125,
        "meta_mean_motion_dot": 2.809e-05,
        "meta_mean_motion_ddot": 0,
        "tle_line1": "1 33793U 93036AJ  25342.56418715  .00002809  00000+0  11125-2 0  9999",
        "tle_line2": "2 33793  73.9804 157.5063 0078353 308.4364 107.5710 14.27701967871471"
      },
      "geometry": {
        "type": "Point",
        "coordinates": [
          -90.79990591444559,
          72.6838614326217
        ]
      }
    },
    {
      "type": "Feature",
      "properties": {
        "norad_id": 33795,
        "name": "COSMOS 2251 DEB",
        "group": "cosmos-2251-debris",
        "lat": 43.88100457806714,
        "lon": -111.993362838566,
        "alt_km": 528.3669025984809,
        "timestamp": "2025-12-09T04:51:47.883987+00:00",
        "meta_object_name": "COSMOS 2251 DEB",
        "meta_object_id": "1993-036AL",
        "meta_epoch": "2025-12-08T17:38:57.204384",
        "meta_mean_motion": 15.05278416,
        "meta_eccentricity": 0.0032104,
        "meta_inclination": 74.0331,
        "meta_ra_of_asc_node": 84.9465,
        "meta_arg_of_pericenter": 170.1082,
        "meta_mean_anomaly": 312.9047,
        "meta_ephemeris_type": 0,
        "meta_classification_type": "U",
        "meta_norad_cat_id": 33795,
        "meta_element_set_no": 999,
        "meta_rev_at_epoch": 89961,
        "meta_bstar": 0.0019301,
        "meta_mean_motion_dot": 0.00027988,
        "meta_mean_motion_ddot": 0,
        "tle_line1": "1 33795U 93036AL  25342.73538431  .00027988  00000+0  19301-2 0  9997",
        "tle_line2": "2 33795  74.0331  84.9465 0032104 170.1082 312.9047 15.05278416899610"
      },
      "geometry": {
        "type": "Point",
        "coordinates": [
          -111.993362838566,
          43.88100457806714
        ]
      }
    },
    {
      "type": "Feature",
      "properties": {
        "norad_id": 33797,
        "name": "COSMOS 2251 DEB",
        "group": "cosmos-2251-debris",
        "lat": -18.76562077184607,
        "lon": -132.74127172193536,
        "alt_km": 689.0882295617748,
        "timestamp": "2025-12-09T04:51:47.883996+00:00",
        "meta_object_name": "COSMOS 2251 DEB",
        "meta_object_id": "1993-036AN",
        "meta_epoch": "2025-12-08T15:21:19.063008",
        "meta_mean_motion": 14.57824045,
        "meta_eccentricity": 0.0060881,
        "meta_inclination": 74.048,
        "meta_ra_of_asc_node": 42.751,
        "meta_arg_of_pericenter": 131.873,
        "meta_mean_anomaly": 354.2772,
        "meta_ephemeris_type": 0,
        "meta_classification_type": "U",
        "meta_norad_cat_id": 33797,
        "meta_element_set_no": 999,
        "meta_rev_at_epoch": 88925,
        "meta_bstar": 0.00075502,
        "meta_mean_motion_dot": 3.517e-05,
        "meta_mean_motion_ddot": 0,
        "tle_line1": "1 33797U 93036AN  25342.63980397  .00003517  00000+0  75502-3 0  9998",
        "tle_line2": "2 33797  74.0480  42.7510 0060881 131.8730 354.2772 14.57824045889251"
      },
      "geometry": {
        "type": "Point",
        "coordinates": [
          -132.74127172193536,
          -18.76562077184607
        ]
      }
    },
    {
      "type": "Feature",
      "properties": {
        "norad_id": 33798,
        "name": "COSMOS 2251 DEB",
        "group": "cosmos-2251-debris",
        "lat": -61.494361514075834,
        "lon": -5.678172966059954,
        "alt_km": 687.6111140353969,
        "timestamp": "2025-12-09T04:51:47.884006+00:00",
        "meta_object_name": "COSMOS 2251 DEB",
        "meta_object_id": "1993-036AP",
        "meta_epoch": "2025-12-08T19:56:22.483392",
        "meta_mean_motion": 14.44607737,
        "meta_eccentricity": 0.0092513,
        "meta_inclination": 74.0278,
        "meta_ra_of_asc_node": 143.1861,
        "meta_arg_of_pericenter": 265.4036,
        "meta_mean_anomaly": 208.0505,
        "meta_ephemeris_type": 0,
        "meta_classification_type": "U",
        "meta_norad_cat_id": 33798,
        "meta_element_set_no": 999,
        "meta_rev_at_epoch": 88537,
        "meta_bstar": 0.00031916,
        "meta_mean_motion_dot": 1.134e-05,
        "meta_mean_motion_ddot": 0,
        "tle_line1": "1 33798U 93036AP  25342.83081578  .00001134  00000+0  31916-3 0  9998",
        "tle_line2": "2 33798  74.0278 143.1861 0092513 265.4036 208.0505 14.44607737885374"
      },
      "geometry": {
        "type": "Point",
        "coordinates": [
          -5.678172966059954,
          -61.494361514075834
        ]
      }
    },
    {
      "type": "Feature",
      "properties": {
        "norad_id": 33799,
        "name": "COSMOS 2251 DEB",
        "group": "cosmos-2251-debris",
        "lat": 43.14376287935497,
        "lon": 104.31801095752361,
        "alt_km": 634.098683076978,
        "timestamp": "2025-12-09T04:51:47.884022+00:00",
        "meta_object_name": "COSMOS 2251 DEB",
        "meta_object_id": "1993-036AQ",
        "meta_epoch": "2025-12-08T18:00:12.146112",
        "meta_mean_motion": 14.79481859,
        "meta_eccentricity": 0.0023789,
        "meta_inclination": 74.0324,
        "meta_ra_of_asc_node": 89.6423,
        "meta_arg_of_pericenter": 161.7308,
        "meta_mean_anomaly": 354.8729,
        "meta_ephemeris_type": 0,
        "meta_classification_type": "U",
        "meta_norad_cat_id": 33799,
        "meta_element_set_no": 999,
        "meta_rev_at_epoch": 88752,
        "meta_bstar": 0.0017589,
        "meta_mean_motion_dot": 0.000132,
        "meta_mean_motion_ddot": 0,
        "tle_line1": "1 33799U 93036AQ  25342.75014058  .00013200  00000+0  17589-2 0  9995",
        "tle_line2": "2 33799  74.0324  89.6423 0023789 161.7308 354.8729 14.79481859887524"
      },
      "geometry": {
        "type": "Point",
        "coordinates": [
          104.31801095752361,
          43.14376287935497
        ]
      }
    }
  ]
}